NORAD_CAT_ID,OBJECT_NAME,OBJECT_TYPE,EPOCH,MEAN_MOTION,ECCENTRICITY,INCLINATION,RA_OF_ASC_NODE,ARG_OF_PERICENTER,MEAN_ANOMALY,BSTAR,MEAN_MOTION_DOT,MEAN_MOTION_DDOT,TLE_LINE0,TLE_LINE1,TLE_LINE2,SEMIMAJOR_AXIS,PERIOD,APOGEE,PERIGEE,DECAYED
53721.0,STARLINK-4707,PAYLOAD,2024-03-16 12:45:45,15.0883915,0.0001271,53.2165,260.3342,111.8654,248.2473,5.6482e-05,6.11e-06,0.0,0 STARLINK-4707,1 53721U 22107X   24076.53178177  .00000611  00000-0  56482-4 0  9995,2 53721  53.2165 260.3342 0001271 111.8654 248.2473 15.08839150 84786,6917.883,95.438,540.627,538.869,0.0
53721.0,STARLINK-4707,PAYLOAD,2024-03-16 19:07:18,15.08839833,0.0001287,53.217,259.1436,89.8222,270.2917,9.0361e-05,1.15e-05,0.0,0 STARLINK-4707,1 53721U 22107X   24076.79674137  .00001150  00000-0  90361-4 0  9993,2 53721  53.2170 259.1436 0001287  89.8222 270.2917 15.08839833 85286,6917.881,95.438,540.636,538.856,0.0
53721.0,STARLINK-4707,PAYLOAD,2024-03-17 20:33:28,15.08839003,0.0001342,53.2177,254.3912,91.6716,268.443,6.7302e-05,7.83e-06,0.0,0 STARLINK-4707,1 53721U 22107X   24077.85658493  .00000783  00000-0  67302-4 0  9998,2 53721  53.2177 254.3912 0001342  91.6716 268.4430 15.08839003 84984,6917.883,95.438,540.677,538.82,0.0
53721.0,STARLINK-4707,PAYLOAD,2024-03-18 20:24:15,15.08848655,0.0001309,53.2174,249.9289,87.998,272.1162,0.00010518,1.387e-05,0.0,0 STARLINK-4707,1 53721U 22107X   24078.85017572  .00001387  00000-0  10518-3 0  9993,2 53721  53.2174 249.9289 0001309  87.9980 272.1162 15.08848655 85137,6917.854,95.437,540.624,538.813,0.0
53721.0,STARLINK-4707,PAYLOAD,2024-03-19 10:42:44,15.08842322,0.0002027,53.2158,247.2584,72.7511,287.3702,8.8351e-05,1.118e-05,0.0,0 STARLINK-4707,1 53721U 22107X   24079.44634313  .00001118  00000-0  88351-4 0  9990,2 53721  53.2158 247.2584 0002027  72.7511 287.3702 15.08842322 85681,6917.873,95.437,541.141,538.336,0.0
53721.0,STARLINK-4707,PAYLOAD,2024-03-19 20:15:02,15.08853601,0.0001252,53.2168,245.4687,83.8659,276.2475,-1.9627e-05,-6e-06,0.0,0 STARLINK-4707,1 53721U 22107X   24079.84377689 -.00000600  00000-0 -19627-4 0  9991,2 53721  53.2168 245.4687 0001252  83.8659 276.2475 15.08853601 85283,6917.839,95.437,540.57,538.838,0.0
53721.0,STARLINK-4707,PAYLOAD,2024-03-20 10:33:31,15.08826589,0.0001415,53.2167,242.7933,84.2236,275.8917,2.5974e-05,1.25e-06,0.0,0 STARLINK-4707,1 53721U 22107X   24080.43995260  .00000125  00000-0  25974-4 0  9991,2 53721  53.2167 242.7933 0001415  84.2236 275.8917 15.08826589 85374,6917.921,95.438,540.765,538.807,0.0
53721.0,STARLINK-4707,PAYLOAD,2024-03-20 16:55:04,15.08830873,0.0001558,53.2169,241.6037,105.0301,255.0863,5.5759e-05,5.99e-06,0.0,0 STARLINK-4707,1 53721U 22107X   24080.70491027  .00000599  00000-0  55759-4 0  9992,2 53721  53.2169 241.6037 0001558 105.0301 255.0863 15.08830873 85878,6917.908,95.438,540.851,538.695,0.0
53721.0,STARLINK-4707,PAYLOAD,2024-03-21 04:02:46,15.08834238,0.0001492,53.217,239.5226,84.8112,275.3051,8.7018e-05,1.097e-05,0.0,0 STARLINK-4707,1 53721U 22107X   24081.16859144  .00001097  00000-0  87018-4 0  9998,2 53721  53.2170 239.5226 0001492  84.8112 275.3051 15.08834238 85487,6917.898,95.438,540.795,538.731,0.0
53721.0,STARLINK-4707,PAYLOAD,2024-03-21 10:24:18,15.0883776,0.0001431,53.2167,238.3329,83.8406,276.2749,5.319e-05,5.59e-06,0.0,0 STARLINK-4707,1 53721U 22107X   24081.43355168  .00000559  00000-0  53190-4 0  9991,2 53721  53.2167 238.3329 0001431  83.8406 276.2749 15.08837760 85984,6917.887,95.438,540.742,538.762,0.0
53721.0,STARLINK-4707,PAYLOAD,2024-03-21 19:56:40,15.08805064,0.000126,53.217,236.5471,71.7677,288.3452,-0.00024638,-4.203e-05,0.0,0 STARLINK-4707,1 53721U 22107X   24081.83102385 -.00004203  00000-0 -24638-3 0  9992,2 53721  53.2170 236.5471 0001260  71.7677 288.3452 15.08805064 85585,6917.987,95.44,540.724,538.981,0.0
53721.0,STARLINK-4707,PAYLOAD,2024-03-22 10:15:06,15.08837886,0.0001144,53.2159,233.8694,95.1795,264.9328,0.00010063,1.314e-05,0.0,0 STARLINK-4707,1 53721U 22107X   24082.42715872  .00001314  00000-0  10063-3 0  9994,2 53721  53.2159 233.8694 0001144  95.1795 264.9328 15.08837886 85670,6917.887,95.438,540.543,538.96,0.0
53721.0,STARLINK-4707,PAYLOAD,2024-03-22 13:25:51,15.0886207,0.0001433,53.2161,233.2746,96.2474,263.8682,0.00029672,4.44e-05,0.0,0 STARLINK-4707,1 53721U 22107X   24082.55961854  .00004440  00000-0  29672-3 0  9990,2 53721  53.2161 233.2746 0001433  96.2474 263.8682 15.08862070 86150,6917.813,95.436,540.669,538.687,0.0
53721.0,STARLINK-4707,PAYLOAD,2024-03-22 16:36:36,15.08864854,0.0001359,53.2175,232.6788,74.7915,285.3228,0.00034824,5.262e-05,0.0,0 STARLINK-4707,1 53721U 22107X   24082.69209456  .00005262  00000-0  34824-3 0  9996,2 53721  53.2175 232.6788 0001359  74.7915 285.3228 15.08864854 85710,6917.804,95.436,540.61,538.729,0.0
53721.0,STARLINK-4707,PAYLOAD,2024-03-23 13:16:39,15.08838446,0.0001168,53.2177,228.8136,86.5532,273.5593,0.00015159,2.125e-05,0.0,0 STARLINK-4707,1 53721U 22107X   24083.55323613  .00002125  00000-0  15159-3 0  9999,2 53721  53.2177 228.8136 0001168  86.5532 273.5593 15.08838446 85846,6917.885,95.438,540.558,538.942,0.0
53721.0,STARLINK-4707,PAYLOAD,2024-03-23 14:52:02,15.08838355,0.0001173,53.2174,228.516,89.7449,270.3678,0.00014913,2.086e-05,0.0,0 STARLINK-4707,1 53721U 22107X   24083.61947603  .00002086  00000-0  14913-3 0  9990,2 53721  53.2174 228.5160 0001173  89.7449 270.3678 15.08838355 86316,6917.885,95.438,540.562,538.939,0.0
53721.0,STARLINK-4707,PAYLOAD,2024-03-24 13:07:25,15.08863912,0.0001437,53.2182,224.3595,72.1781,287.9368,-3.1345e-05,-7.87e-06,0.0,0 STARLINK-4707,1 53721U 22107X   24084.54682587 -.00000787  00000-0 -31345-4 0  9997,2 53721  53.2182 224.3595 0001437  72.1781 287.9368 15.08863912 85999,6917.807,95.436,540.666,538.678,0.0
53721.0,STARLINK-4707,PAYLOAD,2024-03-24 14:42:48,15.08867821,0.000149,53.2165,224.0539,61.7914,298.3229,-5.7064e-05,-1.197e-05,0.0,0 STARLINK-4707,1 53721U 22107X   24084.61306279 -.00001197  00000-0 -57064-4 0  9998,2 53721  53.2165 224.0539 0001490  61.7914 298.3229 15.08867821 86464,6917.795,95.436,540.691,538.63,0.0
53721.0,STARLINK-4707,PAYLOAD,2024-03-24 16:18:10,15.08879266,0.0001459,53.2175,223.7591,65.8494,294.2651,4.2387e-05,3.87e-06,0.0,0 STARLINK-4707,1 53721U 22107X   24084.67929152  .00000387  00000-0  42387-4 0  9995,2 53721  53.2175 223.7591 0001459  65.8494 294.2651 15.08879266 86013,6917.76,95.435,540.635,538.616,0.0
53721.0,STARLINK-4707,PAYLOAD,2024-03-25 01:50:30,15.08864015,0.0001479,53.2174,221.9753,64.9399,295.1747,-6.7206e-05,-1.358e-05,0.0,0 STARLINK-4707,1 53721U 22107X   24085.07673880 -.00001358  00000-0 -67206-4 0  9992,2 53721  53.2174 221.9753 0001479  64.9399 295.1747 15.08864015 86076,6917.807,95.436,540.695,538.649,0.0
53721.0,STARLINK-4707,PAYLOAD,2024-03-25 12:58:13,15.08832937,0.0001463,53.2171,219.8986,90.4766,269.6394,-8.4726e-05,-1.636e-05,0.0,0 STARLINK-4707,1 53721U 22107X   24085.54043426 -.00001636  00000-0 -84726-4 0  9996,2 53721  53.2171 219.8986 0001463  90.4766 269.6394 15.08832937 86142,6917.902,95.438,540.779,538.755,0.0
53721.0,STARLINK-4707,PAYLOAD,2024-03-25 17:44:22,15.08848268,0.0001433,53.2169,219.0055,82.4743,277.6412,0.0001553,2.185e-05,0.0,0 STARLINK-4707,1 53721U 22107X   24085.73914790  .00002185  00000-0  15530-3 0  9992,2 53721  53.2169 219.0055 0001433  82.4743 277.6412 15.08848268 86178,6917.855,95.437,540.711,538.729,0.0
53721.0,STARLINK-4707,PAYLOAD,2024-03-26 12:49:01,15.08823357,0.0001693,53.2173,215.4355,92.1004,268.0182,-0.00029887,-5.039e-05,0.0,0 STARLINK-4707,1 53721U 22107X   24086.53404635 -.00005039  00000-0 -29887-3 0  9996,2 53721  53.2173 215.4355 0001693  92.1004 268.0182 15.08823357 86295,6917.931,95.439,540.967,538.625,0.0
53721.0,STARLINK-4707,PAYLOAD,2024-03-26 14:24:24,15.08822835,0.0001633,53.2176,215.1384,93.8135,266.3044,-0.0002847,-4.814e-05,0.0,0 STARLINK-4707,1 53721U 22107X   24086.60028778 -.00004814  00000-0 -28470-3 0  9991,2 53721  53.2176 215.1384 0001633  93.8135 266.3044 15.08822835 86764,6917.933,95.439,540.928,538.668,0.0
53721.0,STARLINK-4707,PAYLOAD,2024-03-26 15:59:48,15.08825504,0.0001567,53.2175,214.8412,82.6009,277.5161,-0.0002147,-3.702e-05,0.0,0 STARLINK-4707,1 53721U 22107X   24086.66652785 -.00003702  00000-0 -21470-3 0  9996,2 53721  53.2175 214.8412 0001567  82.6009 277.5161 15.08825504 86774,6917.925,95.438,540.874,538.706,0.0
53721.0,STARLINK-4707,PAYLOAD,2024-03-27 01:32:06,15.08834866,0.0001425,53.2173,213.0563,93.9353,266.1802,-3.2168e-05,-8e-06,0.0,0 STARLINK-4707,1 53721U 22107X   24087.06396540 -.00000800  00000-0 -32168-4 0  9998,2 53721  53.2173 213.0563 0001425  93.9353 266.1802 15.08834866 86373,6917.896,95.438,540.747,538.775,0.0
53721.0,STARLINK-4707,PAYLOAD,2024-03-27 14:15:11,15.08839962,0.0001132,53.216,210.6771,97.8395,262.2726,0.00036187,5.476e-05,0.0,0 STARLINK-4707,1 53721U 22107X   24087.59388501  .00005476  00000-0  36187-3 0  9990,2 53721  53.2160 210.6771 0001132  97.8395 262.2726 15.08839962 86911,6917.881,95.438,540.529,538.962,0.0
53721.0,STARLINK-4707,PAYLOAD,2024-03-27 17:25:57,15.08859181,0.0001243,53.2164,210.0831,86.4948,273.6186,0.00044597,6.821e-05,0.0,0 STARLINK-4707,1 53721U 22107X   24087.72635554  .00006821  00000-0  44597-3 0  9997,2 53721  53.2164 210.0831 0001243  86.4948 273.6186 15.08859181 86479,6917.822,95.436,540.547,538.827,0.0
53721.0,STARLINK-4707,PAYLOAD,2024-03-28 01:22:53,15.08848846,0.000142,53.2169,208.5945,87.4297,272.6858,0.00017986,2.576e-05,0.0,0 STARLINK-4707,1 53721U 22107X   24088.05756033  .00002576  00000-0  17986-3 0  9995,2 53721  53.2169 208.5945 0001420  87.4297 272.6858 15.08848846 86524,6917.853,95.437,540.701,538.736,0.0
53721.0,STARLINK-4707,PAYLOAD,2024-03-28 14:05:58,15.08853471,0.0001516,53.2154,206.2172,89.4164,270.7001,0.00033884,5.111e-05,0.0,0 STARLINK-4707,1 53721U 22107X   24088.58748087  .00005111  00000-0  33884-3 0  9996,2 53721  53.2154 206.2172 0001516  89.4164 270.7001 15.08853471 87065,6917.839,95.437,540.753,538.655,0.0
